APRIZESAT 2             
1 28366U 04025A   26192.91613741  .00000117  00000+0  49400-4 0  9997
2 28366  98.1037 357.4992 0105709 174.7398 185.4928 14.38046705155191
SAUDICOMSAT 1           
1 28369U 04025D   26192.48970258  .00000175  00000+0  51431-4 0  9992
2 28369  98.5776 203.2774 0031139 310.6222  49.2266 14.55491991167663
SAUDICOMSAT 2           
1 28370U 04025E   26192.55339693  .00000103  00000+0  38711-4 0  9991
2 28370  98.6642 205.4885 0055383 184.7154 175.3525 14.49993257163633
APRIZESAT 1             
1 28372U 04025G   26192.55490248  .00000137  00000+0  45608-4 0  9997
2 28372  98.6308 203.9438 0045811  81.4406 279.1975 14.51790724165449
NANOSAT-1               
1 28493U 04049B   26192.84309717  .00000545  00000+0  78983-4 0  9994
2 28493  98.2305 330.1116 0003523 195.3532 164.7572 14.80207016159096
SAUDICOMSAT 7           
1 31119U 07012C   26192.88681173  .00000273  00000+0  57950-4 0  9998
2 31119  98.3795 167.5262 0056856 118.4305 242.2643 14.66134628 26056
SAUDICOMSAT 6           
1 31121U 07012E   26192.85578718  .00000202  00000+0  48827-4 0  9993
2 31121  98.4114 160.8339 0070422 249.6899 109.6724 14.62582926 23794
SAUDICOMSAT 5           
1 31124U 07012H   26192.82565255  .00000347  00000+0  68509-4 0  9994
2 31124  98.3507 168.2056 0048427  49.2605 311.2788 14.68189454 27216
SAUDICOMSAT 3           
1 31125U 07012J   26192.87946205  .00000433  00000+0  78991-4 0  9990
2 31125  98.3161 168.8072 0038494 335.8864  24.0538 14.70746738 28457
SAUDICOMSAT 4           
1 31127U 07012L   26192.88737533  .00000213  00000+0  48959-4 0  9992
2 31127  98.4001 165.9639 0063315 180.0667 180.0537 14.64533726 24903
APRIZESAT 4             
1 35684U 09041D   26192.80195894  .00000354  00000+0  49034-4 0  9999
2 35684  98.1404 268.6124 0042057 240.8195 118.8807 14.83910952915011
APRIZESAT 3             
1 35686U 09041F   26192.37396107  .00001064  00000+0  96629-4 0  9994
2 35686  98.2090 346.7610 0061044 348.5178  11.4645 14.96303123919996
S-NET D                 
1 43186U 18014G   26192.73907553  .00003027  00000+0  15704-3 0  9996
2 43186  97.5339  97.3774 0006369 299.8497  60.2103 15.16898744462488
S-NET B                 
1 43187U 18014H   26192.68504350  .00003105  00000+0  16111-3 0  9999
2 43187  97.5348  97.3111 0006999 294.1184  65.9317 15.16867942462478
S-NET A                 
1 43188U 18014J   26192.73781729  .00002992  00000+0  15523-3 0  9992
2 43188  97.5356  97.5771 0006912 294.7248  65.3265 15.16907043462488
S-NET C                 
1 43189U 18014K   26192.68904905  .00003040  00000+0  15783-3 0  9993
2 43189  97.5373  97.6068 0008142 285.2578  74.7754 15.16859391461024
SALSAT                  
1 46495U 20068K   26192.54062004  .00004447  00000+0  15528-3 0  9997
2 46495  97.8855 197.0941 0008823 206.5203 153.5586 15.30139435319080
OOV-CUBE (TUBSAT-30)    
1 60240U 24128F   26192.40803188  .00001201  00000+0  10331-3 0  9995
2 60240  61.9942 141.1095 0041582 139.1306 221.2916 15.02864718109756
LPNTSAT-001 (IOD-1)     
1 68408U 26065A   26192.91809319  .00001406  00000+0  70972-4 0  9994
2 68408  97.3991  72.9026 0014638 279.1715  80.7864 15.18659053 16010
CHUANG XIN 26 (CX-26)   
1 69972U 26158A   26192.48090097 -.00000088  00000+0  30360-4 0  9994
2 69972  49.9853 296.0945 0004896 288.4346  71.6034 14.25145244   171
